[
    {
        "OBJECT_NAME": "SL-8 DEB",
        "OBJECT_ID": "1982-001D",
        "EPOCH": "2025-12-06T20:57:59.266368",
        "MEAN_MOTION": 15.94676802,
        "ECCENTRICITY": 0.00127892,
        "INCLINATION": 73.9758,
        "RA_OF_ASC_NODE": 238.6951,
        "ARG_OF_PERICENTER": 161.2923,
        "MEAN_ANOMALY": 198.8786,
        "EPHEMERIS_TYPE": 0,
        "CLASSIFICATION_TYPE": "U",
        "NORAD_CAT_ID": 13030,
        "ELEMENT_SET_NO": 999,
        "REV_AT_EPOCH": 34336,
        "BSTAR": 0.0040072253,
        "MEAN_MOTION_DOT": 0.01512386,
        "MEAN_MOTION_DDOT": 0.0011860717
    },
    {
        "OBJECT_NAME": "COSMOS 1606",
        "OBJECT_ID": "1984-111A",
        "EPOCH": "2025-12-06T21:13:31.591488",
        "MEAN_MOTION": 15.9379124,
        "ECCENTRICITY": 0.00087752,
        "INCLINATION": 82.4999,
        "RA_OF_ASC_NODE": 272.894,
        "ARG_OF_PERICENTER": 118.6468,
        "MEAN_ANOMALY": 241.569,
        "EPHEMERIS_TYPE": 0,
        "CLASSIFICATION_TYPE": "U",
        "NORAD_CAT_ID": 15369,
        "ELEMENT_SET_NO": 999,
        "REV_AT_EPOCH": 25206,
        "BSTAR": 0.00092798529,
        "MEAN_MOTION_DOT": 0.00336536,
        "MEAN_MOTION_DDOT": 4.2220077e-05
    },
    {
        "OBJECT_NAME": "COSMOS 1733",
        "OBJECT_ID": "1986-018A",
        "EPOCH": "2025-12-07T02:24:41.573952",
        "MEAN_MOTION": 16.22941408,
        "ECCENTRICITY": 0.0002969,
        "INCLINATION": 82.4442,
        "RA_OF_ASC_NODE": 166.8493,
        "ARG_OF_PERICENTER": 279.0382,
        "MEAN_ANOMALY": 81.0572,
        "EPHEMERIS_TYPE": 0,
        "CLASSIFICATION_TYPE": "U",
        "NORAD_CAT_ID": 16611,
        "ELEMENT_SET_NO": 999,
        "REV_AT_EPOCH": 18072,
        "BSTAR": 0.00078132,
        "MEAN_MOTION_DOT": 0.01844478,
        "MEAN_MOTION_DDOT": -1.2132e-06
    },
    {
        "OBJECT_NAME": "PEGASUS R/B",
        "OBJECT_ID": "1998-020B",
        "EPOCH": "2025-12-07T01:44:24.290304",
        "MEAN_MOTION": 16.29721045,
        "ECCENTRICITY": 4.81e-05,
        "INCLINATION": 97.2932,
        "RA_OF_ASC_NODE": 211.9596,
        "ARG_OF_PERICENTER": 111.0227,
        "MEAN_ANOMALY": 249.1118,
        "EPHEMERIS_TYPE": 0,
        "CLASSIFICATION_TYPE": "U",
        "NORAD_CAT_ID": 25281,
        "ELEMENT_SET_NO": 999,
        "REV_AT_EPOCH": 52391,
        "BSTAR": 0.00086275,
        "MEAN_MOTION_DOT": 0.03639613,
        "MEAN_MOTION_DDOT": 2.4379e-06
    },
    {
        "OBJECT_NAME": "TES",
        "OBJECT_ID": "2001-049A",
        "EPOCH": "2025-12-06T15:35:29.500800",
        "MEAN_MOTION": 15.94143504,
        "ECCENTRICITY": 0.00093743,
        "INCLINATION": 97.8119,
        "RA_OF_ASC_NODE": 221.6064,
        "ARG_OF_PERICENTER": 94.4157,
        "MEAN_ANOMALY": 265.8188,
        "EPHEMERIS_TYPE": 0,
        "CLASSIFICATION_TYPE": "U",
        "NORAD_CAT_ID": 26957,
        "ELEMENT_SET_NO": 999,
        "REV_AT_EPOCH": 32852,
        "BSTAR": 0.0013402118,
        "MEAN_MOTION_DOT": 0.00494231,
        "MEAN_MOTION_DDOT": 0.00010004668
    },
    {
        "OBJECT_NAME": "FENGYUN 1C DEB",
        "OBJECT_ID": "1999-025AGY",
        "EPOCH": "2025-12-06T14:22:26.663808",
        "MEAN_MOTION": 15.94808417,
        "ECCENTRICITY": 0.00152998,
        "INCLINATION": 98.7994,
        "RA_OF_ASC_NODE": 12.9295,
        "ARG_OF_PERICENTER": 219.2254,
        "MEAN_ANOMALY": 140.791,
        "EPHEMERIS_TYPE": 0,
        "CLASSIFICATION_TYPE": "U",
        "NORAD_CAT_ID": 30486,
        "ELEMENT_SET_NO": 999,
        "REV_AT_EPOCH": 1656,
        "BSTAR": 0.0030702646,
        "MEAN_MOTION_DOT": 0.01173656,
        "MEAN_MOTION_DDOT": 0.00065507125
    },
    {
        "OBJECT_NAME": "M3MSAT",
        "OBJECT_ID": "2016-040G",
        "EPOCH": "2025-12-06T20:00:57.883392",
        "MEAN_MOTION": 16.05476544,
        "ECCENTRICITY": 0.00033581,
        "INCLINATION": 97.0436,
        "RA_OF_ASC_NODE": 10.1535,
        "ARG_OF_PERICENTER": 176.928,
        "MEAN_ANOMALY": 183.2023,
        "EPHEMERIS_TYPE": 0,
        "CLASSIFICATION_TYPE": "U",
        "NORAD_CAT_ID": 41605,
        "ELEMENT_SET_NO": 999,
        "REV_AT_EPOCH": 52769,
        "BSTAR": 0.0008450166,
        "MEAN_MOTION_DOT": 0.00588799,
        "MEAN_MOTION_DDOT": 0.00016957612
    },
    {
        "OBJECT_NAME": "FLOCK 3S-3",
        "OBJECT_ID": "2018-099AG",
        "EPOCH": "2025-12-06T17:29:48.846048",
        "MEAN_MOTION": 15.96327812,
        "ECCENTRICITY": 0.00046507,
        "INCLINATION": 97.4334,
        "RA_OF_ASC_NODE": 55.2255,
        "ARG_OF_PERICENTER": 272.1612,
        "MEAN_ANOMALY": 87.9131,
        "EPHEMERIS_TYPE": 0,
        "CLASSIFICATION_TYPE": "U",
        "NORAD_CAT_ID": 43788,
        "ELEMENT_SET_NO": 999,
        "REV_AT_EPOCH": 38508,
        "BSTAR": 0.0029185555,
        "MEAN_MOTION_DOT": 0.01195693,
        "MEAN_MOTION_DDOT": 0.0006999909
    },
    {
        "OBJECT_NAME": "DUCHIFAT-3",
        "OBJECT_ID": "2019-089C",
        "EPOCH": "2025-12-03T04:48:09.927360",
        "MEAN_MOTION": 16.00863037,
        "ECCENTRICITY": 0.00116587,
        "INCLINATION": 36.9264,
        "RA_OF_ASC_NODE": 289.006,
        "ARG_OF_PERICENTER": 216.1192,
        "MEAN_ANOMALY": 143.8795,
        "EPHEMERIS_TYPE": 0,
        "CLASSIFICATION_TYPE": "U",
        "NORAD_CAT_ID": 44854,
        "ELEMENT_SET_NO": 999,
        "REV_AT_EPOCH": 33061,
        "BSTAR": 0.0019589513,
        "MEAN_MOTION_DOT": 0.01105376,
        "MEAN_MOTION_DDOT": 0.00061297676
    },
    {
        "OBJECT_NAME": "STARLINK-1107",
        "OBJECT_ID": "2020-001BL",
        "EPOCH": "2025-12-07T00:00:02.000160",
        "MEAN_MOTION": 15.99801918,
        "ECCENTRICITY": 0.00075142,
        "INCLINATION": 52.9968,
        "RA_OF_ASC_NODE": 257.7703,
        "ARG_OF_PERICENTER": 151.5526,
        "MEAN_ANOMALY": 261.3545,
        "EPHEMERIS_TYPE": 0,
        "CLASSIFICATION_TYPE": "U",
        "NORAD_CAT_ID": 44972,
        "ELEMENT_SET_NO": 999,
        "REV_AT_EPOCH": 597,
        "BSTAR": 0.002288772,
        "MEAN_MOTION_DOT": 0.01178653,
        "MEAN_MOTION_DDOT": 0.00072009095
    },
    {
        "OBJECT_NAME": "STARLINK-1475",
        "OBJECT_ID": "2020-038K",
        "EPOCH": "2025-12-06T23:40:14.605824",
        "MEAN_MOTION": 16.0821912,
        "ECCENTRICITY": 0.0004096,
        "INCLINATION": 53.0375,
        "RA_OF_ASC_NODE": 134.9134,
        "ARG_OF_PERICENTER": 313.1345,
        "MEAN_ANOMALY": 46.9345,
        "EPHEMERIS_TYPE": 0,
        "CLASSIFICATION_TYPE": "U",
        "NORAD_CAT_ID": 45739,
        "ELEMENT_SET_NO": 999,
        "REV_AT_EPOCH": 30444,
        "BSTAR": 0.00088602,
        "MEAN_MOTION_DOT": 0.00760741,
        "MEAN_MOTION_DDOT": 0.00031631
    },
    {
        "OBJECT_NAME": "STARLINK-1692",
        "OBJECT_ID": "2020-070L",
        "EPOCH": "2025-12-06T12:16:04.245600",
        "MEAN_MOTION": 16.18020865,
        "ECCENTRICITY": 0.00058085,
        "INCLINATION": 53.0259,
        "RA_OF_ASC_NODE": 157.3639,
        "ARG_OF_PERICENTER": 286.8671,
        "MEAN_ANOMALY": 73.1729,
        "EPHEMERIS_TYPE": 0,
        "CLASSIFICATION_TYPE": "U",
        "NORAD_CAT_ID": 46542,
        "ELEMENT_SET_NO": 999,
        "REV_AT_EPOCH": 28654,
        "BSTAR": 0.0014436011,
        "MEAN_MOTION_DOT": 0.02191163,
        "MEAN_MOTION_DDOT": 0.0063775371
    }
]