SL-8 DEB                
1 13030U 82001D   25340.87360262  .01512386  11861-2  40072-2 0  9996
2 13030  73.9758 238.6951 0012789 161.2923 198.8786 15.94676802343367
COSMOS 1606             
1 15369U 84111A   25340.88439342  .00336536  42220-4  92799-3 0  9993
2 15369  82.4999 272.8940 0008775 118.6468 241.5690 15.93791240252063
COSMOS 1733             
1 16611U 86018A   25341.10048118  .01844478 -12132-5  78132-3 0  9991
2 16611  82.4442 166.8493 0002969 279.0382  81.0572 16.22941408180723
PEGASUS R/B             
1 25281U 98020B   25341.07250336  .03639613  24379-5  86275-3 0  9990
2 25281  97.2932 211.9596 0000481 111.0227 249.1118 16.29721045523915
TES                     
1 26957U 01049A   25340.64964700  .00494231  10005-3  13402-2 0  9997
2 26957  97.8119 221.6064 0009374  94.4157 265.8188 15.94143504328524
FENGYUN 1C DEB          
1 30486U 99025AGY 25340.59891972  .01173656  65507-3  30703-2 0  9990
2 30486  98.7994  12.9295 0015299 219.2254 140.7910 15.94808417 16565
M3MSAT                  
1 41605U 16040G   25340.83400328  .00588799  16958-3  84502-3 0  9999
2 41605  97.0436  10.1535 0003358 176.9280 183.2023 16.05476544527694
FLOCK 3S-3              
1 43788U 18099AG  25340.72903757  .01195693  69999-3  29186-2 0  9998
2 43788  97.4334  55.2255 0004650 272.1612  87.9131 15.96327812385089
DUCHIFAT-3              
1 44854U 19089C   25337.20011490  .01105376  61298-3  19590-2 0  9997
2 44854  36.9264 289.0060 0011658 216.1192 143.8795 16.00863037330619
STARLINK-1107           
1 44972U 20001BL  25341.00002315  .01178653  72009-3  22888-2 0  9997
2 44972  52.9968 257.7703 0007514 151.5526 261.3545 15.99801918  5978
STARLINK-1475           
1 45739U 20038K   25340.98628016  .00760741  31631-3  88602-3 0  9994
2 45739  53.0375 134.9134 0004096 313.1345  46.9345 16.08219120304443
STARLINK-1692           
1 46542U 20070L   25340.51116025  .02191163  63775-2  14436-2 0  9998
2 46542  53.0259 157.3639 0005808 286.8671  73.1729 16.18020865286541
